{"type": "FeatureCollection", "features": [ {"type": "Feature", "properties": {"norad_id": 66574, "name": "STARLINK-35812", "group": "last-30-days", "lat": 30.324183555227055, "lon": 74.6647701652042, "alt_km": 462.53616738575784, "timestamp": "2025-12-27T08:36:17.075639+00:00", "meta": {"OBJECT_NAME": "STARLINK-35812", "OBJECT_ID": "2025-268T", "EPOCH": "2025-12-27T04:00:01.998720", "MEAN_MOTION": 15.33913536, "ECCENTRICITY": 0.0001299, "INCLINATION": 43.0005, "RA_OF_ASC_NODE": 36.8793, "ARG_OF_PERICENTER": 274.8067, "MEAN_ANOMALY": 152.6938, "EPHEMERIS_TYPE": 0, "CLASSIFICATION_TYPE": "U", "NORAD_CAT_ID": 66574, "ELEMENT_SET_NO": 999, "REV_AT_EPOCH": 605, "BSTAR": -0.066372, "MEAN_MOTION_DOT": -0.02012233, "MEAN_MOTION_DDOT": 0}, "tle": {"line1": "1 66574U 25268T   25361.16668980 -.02012233  00000+0 -66372-1 0  9991", "line2": "2 66574  43.0005  36.8793 0001299 274.8067 152.6938 15.33913536  6057"}}, "geometry": {"type": "Point", "coordinates": [74.6647701652042, 30.324183555227055]}}, {"type": "Feature", "properties": {"norad_id": 66575, "name": "STARLINK-35810", "group": "last-30-days", "lat": 38.18790640015434, "lon": 93.31671111897874, "alt_km": 459.0049420438172, "timestamp": "2025-12-27T08:36:17.075649+00:00", "meta": {"OBJECT_NAME": "STARLINK-35810", "OBJECT_ID": "2025-268U", "EPOCH": "2025-12-27T04:00:01.998720", "MEAN_MOTION": 15.34757534, "ECCENTRICITY": 0.0001388, "INCLINATION": 43.0004, "RA_OF_ASC_NODE": 36.8375, "ARG_OF_PERICENTER": 277.0854, "MEAN_ANOMALY": 167.1074, "EPHEMERIS_TYPE": 0, "CLASSIFICATION_TYPE": "U", "NORAD_CAT_ID": 66575, "ELEMENT_SET_NO": 999, "REV_AT_EPOCH": 605, "BSTAR": -0.065135, "MEAN_MOTION_DOT": -0.02027402, "MEAN_MOTION_DDOT": 0}, "tle": {"line1": "1 66575U 25268U   25361.16668980 -.02027402  00000+0 -65135-1 0  9992", "line2": "2 66575  43.0004  36.8375 0001388 277.0854 167.1074 15.34757534  6058"}}, "geometry": {"type": "Point", "coordinates": [93.31671111897874, 38.18790640015434]}}, {"type": "Feature", "properties": {"norad_id": 66576, "name": "STARLINK-35814", "group": "last-30-days", "lat": 42.43855943020381, "lon": 114.57097681990611, "alt_km": 455.984681619032, "timestamp": "2025-12-27T08:36:17.075662+00:00", "meta": {"OBJECT_NAME": "STARLINK-35814", "OBJECT_ID": "2025-268V", "EPOCH": "2025-12-27T04:00:01.998720", "MEAN_MOTION": 15.35596973, "ECCENTRICITY": 0.0001402, "INCLINATION": 43.001, "RA_OF_ASC_NODE": 36.7982, "ARG_OF_PERICENTER": 279.065, "MEAN_ANOMALY": 181.2643, "EPHEMERIS_TYPE": 0, "CLASSIFICATION_TYPE": "U", "NORAD_CAT_ID": 66576, "ELEMENT_SET_NO": 999, "REV_AT_EPOCH": 604, "BSTAR": -0.063586, "MEAN_MOTION_DOT": -0.0199944, "MEAN_MOTION_DDOT": 0}, "tle": {"line1": "1 66576U 25268V   25361.16668980 -.01999440  00000+0 -63586-1 0  9990", "line2": "2 66576  43.0010  36.7982 0001402 279.0650 181.2643 15.35596973  6049"}}, "geometry": {"type": "Point", "coordinates": [114.57097681990611, 42.43855943020381]}}, {"type": "Feature", "properties": {"norad_id": 66577, "name": "STARLINK-35815", "group": "last-30-days", "lat": 40.39971498705715, "lon": 149.67392872557554, "alt_km": 451.98804089024634, "timestamp": "2025-12-27T08:36:17.075673+00:00", "meta": {"OBJECT_NAME": "STARLINK-35815", "OBJECT_ID": "2025-268W", "EPOCH": "2025-12-27T04:00:01.998720", "MEAN_MOTION": 15.37046934, "ECCENTRICITY": 0.0001321, "INCLINATION": 42.9999, "RA_OF_ASC_NODE": 36.7378, "ARG_OF_PERICENTER": 282.5606, "MEAN_ANOMALY": 202.9952, "EPHEMERIS_TYPE": 0, "CLASSIFICATION_TYPE": "U", "NORAD_CAT_ID": 66577, "ELEMENT_SET_NO": 999, "REV_AT_EPOCH": 605, "BSTAR": -0.060586, "MEAN_MOTION_DOT": -0.01997379, "MEAN_MOTION_DDOT": 0}, "tle": {"line1": "1 66577U 25268W   25361.16668980 -.01997379  00000+0 -60586-1 0  9997", "line2": "2 66577  42.9999  36.7378 0001321 282.5606 202.9952 15.37046934  6057"}}, "geometry": {"type": "Point", "coordinates": [149.67392872557554, 40.39971498705715]}}, {"type": "Feature", "properties": {"norad_id": 66578, "name": "STARLINK-35743", "group": "last-30-days", "lat": 34.75142445868005, "lon": 167.48558219216997, "alt_km": 450.28866493301575, "timestamp": "2025-12-27T08:36:17.075683+00:00", "meta": {"OBJECT_NAME": "STARLINK-35743", "OBJECT_ID": "2025-268X", "EPOCH": "2025-12-27T04:00:01.998720", "MEAN_MOTION": 15.37885356, "ECCENTRICITY": 0.0001178, "INCLINATION": 43.0004, "RA_OF_ASC_NODE": 36.7007, "ARG_OF_PERICENTER": 289.3445, "MEAN_ANOMALY": 210.8127, "EPHEMERIS_TYPE": 0, "CLASSIFICATION_TYPE": "U", "NORAD_CAT_ID": 66578, "ELEMENT_SET_NO": 999, "REV_AT_EPOCH": 599, "BSTAR": -0.059187, "MEAN_MOTION_DOT": -0.02004637, "MEAN_MOTION_DDOT": 0}, "tle": {"line1": "1 66578U 25268X   25361.16668980 -.02004637  00000+0 -59187-1 0  9990", "line2": "2 66578  43.0004  36.7007 0001178 289.3445 210.8127 15.37885356  5995"}}, "geometry": {"type": "Point", "coordinates": [167.48558219216997, 34.75142445868005]}}, {"type": "Feature", "properties": {"norad_id": 66579, "name": "STARLINK-35868", "group": "last-30-days", "lat": 27.196030593186983, "lon": -177.8990412650862, "alt_km": 448.8277323573666, "timestamp": "2025-12-27T08:36:17.075694+00:00", "meta": {"OBJECT_NAME": "STARLINK-35868", "OBJECT_ID": "2025-268Y", "EPOCH": "2025-12-27T04:00:01.998720", "MEAN_MOTION": 15.38740913, "ECCENTRICITY": 0.0001009, "INCLINATION": 43.0009, "RA_OF_ASC_NODE": 36.6659, "ARG_OF_PERICENTER": 284.8053, "MEAN_ANOMALY": 229.3891, "EPHEMERIS_TYPE": 0, "CLASSIFICATION_TYPE": "U", "NORAD_CAT_ID": 66579, "ELEMENT_SET_NO": 999, "REV_AT_EPOCH": 604, "BSTAR": -0.058933, "MEAN_MOTION_DOT": -0.02047625, "MEAN_MOTION_DDOT": 0}, "tle": {"line1": "1 66579U 25268Y   25361.16668980 -.02047625  00000+0 -58933-1 0  9993", "line2": "2 66579  43.0009  36.6659 0001009 284.8053 229.3891 15.38740913  6041"}}, "geometry": {"type": "Point", "coordinates": [-177.8990412650862, 27.196030593186983]}}, {"type": "Feature", "properties": {"norad_id": 66580, "name": "STARLINK-35872", "group": "last-30-days", "lat": 18.631174462818223, "lon": -165.6795543904213, "alt_km": 447.2239017384727, "timestamp": "2025-12-27T08:36:17.075705+00:00", "meta": {"OBJECT_NAME": "STARLINK-35872", "OBJECT_ID": "2025-268Z", "EPOCH": "2025-12-27T04:00:01.998720", "MEAN_MOTION": 15.39762543, "ECCENTRICITY": 9.13e-05, "INCLINATION": 43.0009, "RA_OF_ASC_NODE": 36.6337, "ARG_OF_PERICENTER": 266.3932, "MEAN_ANOMALY": 261.291, "EPHEMERIS_TYPE": 0, "CLASSIFICATION_TYPE": "U", "NORAD_CAT_ID": 66580, "ELEMENT_SET_NO": 999, "REV_AT_EPOCH": 605, "BSTAR": -0.066956, "MEAN_MOTION_DOT": -0.02406811, "MEAN_MOTION_DDOT": 0}, "tle": {"line1": "1 66580U 25268Z   25361.16668980 -.02406811  00000+0 -66956-1 0  9995", "line2": "2 66580  43.0009  36.6337 0000913 266.3932 261.2910 15.39762543  6052"}}, "geometry": {"type": "Point", "coordinates": [-165.6795543904213, 18.631174462818223]}}, {"type": "Feature", "properties": {"norad_id": 66581, "name": "STARLINK-35744", "group": "last-30-days", "lat": 9.841926487517949, "lon": -155.2323627605933, "alt_km": 446.1943311713858, "timestamp": "2025-12-27T08:36:17.075715+00:00", "meta": {"OBJECT_NAME": "STARLINK-35744", "OBJECT_ID": "2025-268AA", "EPOCH": "2025-12-27T04:00:01.998720", "MEAN_MOTION": 15.40412588, "ECCENTRICITY": 8.03e-05, "INCLINATION": 43.0004, "RA_OF_ASC_NODE": 36.6014, "ARG_OF_PERICENTER": 283.752, "MEAN_ANOMALY": 256.8422, "EPHEMERIS_TYPE": 0, "CLASSIFICATION_TYPE": "U", "NORAD_CAT_ID": 66581, "ELEMENT_SET_NO": 999, "REV_AT_EPOCH": 605, "BSTAR": -0.055627, "MEAN_MOTION_DOT": -0.0204365, "MEAN_MOTION_DDOT": 0}, "tle": {"line1": "1 66581U 25268AA  25361.16668980 -.02043650  00000+0 -55627-1 0  9997", "line2": "2 66581  43.0004  36.6014 0000803 283.7520 256.8422 15.40412588  6055"}}, "geometry": {"type": "Point", "coordinates": [-155.2323627605933, 9.841926487517949]}}, {"type": "Feature", "properties": {"norad_id": 66582, "name": "STARLINK-35746", "group": "last-30-days", "lat": -4.18168668745205, "lon": -140.05365112403481, "alt_km": 443.55380501407035, "timestamp": "2025-12-27T08:36:17.075726+00:00", "meta": {"OBJECT_NAME": "STARLINK-35746", "OBJECT_ID": "2025-268AB", "EPOCH": "2025-12-27T04:00:01.998720", "MEAN_MOTION": 15.41849422, "ECCENTRICITY": 9.05e-05, "INCLINATION": 43.0006, "RA_OF_ASC_NODE": 36.5533, "ARG_OF_PERICENTER": 282.143, "MEAN_ANOMALY": 278.1066, "EPHEMERIS_TYPE": 0, "CLASSIFICATION_TYPE": "U", "NORAD_CAT_ID": 66582, "ELEMENT_SET_NO": 999, "REV_AT_EPOCH": 605, "BSTAR": -0.051656, "MEAN_MOTION_DOT": -0.01997381, "MEAN_MOTION_DDOT": 0}, "tle": {"line1": "1 66582U 25268AB  25361.16668980 -.01997381  00000+0 -51656-1 0  9994", "line2": "2 66582  43.0006  36.5533 0000905 282.1430 278.1066 15.41849422  6052"}}, "geometry": {"type": "Point", "coordinates": [-140.05365112403481, -4.18168668745205]}}, {"type": "Feature", "properties": {"norad_id": 66583, "name": "STARLINK-35941", "group": "last-30-days", "lat": -12.23792216432689, "lon": -131.12312319926104, "alt_km": 441.8612473193707, "timestamp": "2025-12-27T08:36:17.075736+00:00", "meta": {"OBJECT_NAME": "STARLINK-35941", "OBJECT_ID": "2025-268AC", "EPOCH": "2025-12-27T04:00:01.998720", "MEAN_MOTION": 15.42680415, "ECCENTRICITY": 9.5e-05, "INCLINATION": 43.0003, "RA_OF_ASC_NODE": 36.5256, "ARG_OF_PERICENTER": 280.1838, "MEAN_ANOMALY": 291.4706, "EPHEMERIS_TYPE": 0, "CLASSIFICATION_TYPE": "U", "NORAD_CAT_ID": 66583, "ELEMENT_SET_NO": 999, "REV_AT_EPOCH": 604, "BSTAR": -0.050652, "MEAN_MOTION_DOT": -0.0201263, "MEAN_MOTION_DDOT": 0}, "tle": {"line1": "1 66583U 25268AC  25361.16668980 -.02012630  00000+0 -50652-1 0  9996", "line2": "2 66583  43.0003  36.5256 0000950 280.1838 291.4706 15.42680415  6046"}}, "geometry": {"type": "Point", "coordinates": [-131.12312319926104, -12.23792216432689]}}]}